[{"OBJECT_NAME":"STARLINK-30550","OBJECT_ID":"2023-156T","EPOCH":"2026-03-09T02:07:30.890208","MEAN_MOTION":15.30196537,"ECCENTRICITY":9.237e-5,"INCLINATION":53.1626,"RA_OF_ASC_NODE":4.1379,"ARG_OF_PERICENTER":116.9815,"MEAN_ANOMALY":243.128,"EPHEMERIS_TYPE":0,"CLASSIFICATION_TYPE":"U","NORAD_CAT_ID":58045,"ELEMENT_SET_NO":999,"REV_AT_EPOCH":13728,"BSTAR":1.1123747e-5,"MEAN_MOTION_DOT":-2.9e-7,"MEAN_MOTION_DDOT":0},{"OBJECT_NAME":"TEVEL2-8","OBJECT_ID":"2025-052AF","EPOCH":"2026-03-09T16:02:08.542752","MEAN_MOTION":15.28392908,"ECCENTRICITY":0.0008031,"INCLINATION":97.4055,"RA_OF_ASC_NODE":324.2923,"ARG_OF_PERICENTER":124.9191,"MEAN_ANOMALY":235.2804,"EPHEMERIS_TYPE":0,"CLASSIFICATION_TYPE":"U","NORAD_CAT_ID":63239,"ELEMENT_SET_NO":999,"REV_AT_EPOCH":5480,"BSTAR":0.00069303947,"MEAN_MOTION_DOT":0.0001913,"MEAN_MOTION_DDOT":0}]
