STARLINK-30550          
1 58045U 23156T   26068.08855197 -.00000029  00000+0  11124-4 0  9998
2 58045  53.1626   4.1379 0000923 116.9815 243.1280 15.30196537137287
TEVEL2-8                
1 63239U 25052AF  26068.66815442  .00019130  00000+0  69304-3 0  9993
2 63239  97.4055 324.2923 0008031 124.9191 235.2804 15.28392908 54807
